{"RECORDS":[{"CCSDS_OMM_VERS":33167.64,"CREATION_DATE":"2033-03-21T07:33:23.014Z","ORIGINATOR":"Crist LLC","OBJECT_NAME":"\\rn>MLxkkz","OBJECT_ID":"}!bUd?g$f3","CENTER_NAME":"WI7^d|b=8#","REF_FRAME":4,"REF_FRAME_EPOCH":"2065-02-10T06:25:10.032Z","TIME_SYSTEM":2,"MEAN_ELEMENT_THEORY":1,"COMMENT":")F`F%%iFuA","EPOCH":"2018-04-26T01:47:50.737Z","SEMI_MAJOR_AXIS":55909.73,"MEAN_MOTION":90237.86,"ECCENTRICITY":12126.22,"INCLINATION":47602.24,"RA_OF_ASC_NODE":55457.56,"ARG_OF_PERICENTER":14758.52,"MEAN_ANOMALY":10803.09,"GM":64859.85,"MASS":8606.52,"SOLAR_RAD_AREA":71157.62,"SOLAR_RAD_COEFF":71685.69,"DRAG_AREA":89567.01,"DRAG_COEFF":85313.72,"EPHEMERIS_TYPE":4,"CLASSIFICATION_TYPE":"K>,V<uw8?l","NORAD_CAT_ID":1482260232,"ELEMENT_SET_NO":2901601464,"REV_AT_EPOCH":20525.94,"BSTAR":29186.39,"MEAN_MOTION_DOT":78036.03,"MEAN_MOTION_DDOT":89232.81,"COV_REF_FRAME":1,"CX_X":93114.9,"CY_X":15176.9,"CY_Y":75277.99,"CZ_X":69354.5,"CZ_Y":76538.58,"CZ_Z":98762.54,"CX_DOT_X":51049.87,"CX_DOT_Y":40921.56,"CX_DOT_Z":57990.37,"CX_DOT_X_DOT":86507.39,"CY_DOT_X":558.21,"CY_DOT_Y":65844.9,"CY_DOT_Z":96904.37,"CY_DOT_X_DOT":61979.68,"CY_DOT_Y_DOT":63315.68,"CZ_DOT_X":42876.52,"CZ_DOT_Y":26016.38,"CZ_DOT_Z":98201.5,"CZ_DOT_X_DOT":12337.95,"CZ_DOT_Y_DOT":72405.51,"CZ_DOT_Z_DOT":63230.31,"USER_DEFINED_BIP_0044_TYPE":2442373790,"USER_DEFINED_OBJECT_DESIGNATOR":"l$4X^2I>u*","USER_DEFINED_EARTH_MODEL":"|*v&jUVa9/","USER_DEFINED_EPOCH_TIMESTAMP":57790.83,"USER_DEFINED_MICROSECONDS":90817.48}]}